[{"OBJECT_NAME":"GHGSAT-C3","OBJECT_ID":"2022-057F","EPOCH":"2026-03-09T22:30:13.234752","MEAN_MOTION":15.32943835,"ECCENTRICITY":0.00073198,"INCLINATION":97.6431,"RA_OF_ASC_NODE":211.0668,"ARG_OF_PERICENTER":112.4588,"MEAN_ANOMALY":247.7429,"EPHEMERIS_TYPE":0,"CLASSIFICATION_TYPE":"U","NORAD_CAT_ID":52737,"ELEMENT_SET_NO":999,"REV_AT_EPOCH":21032,"BSTAR":0.00031249517,"MEAN_MOTION_DOT":9.871e-5,"MEAN_MOTION_DDOT":0},{"OBJECT_NAME":"STARLINK-32230","OBJECT_ID":"2024-138M","EPOCH":"2026-03-09T22:36:01.923552","MEAN_MOTION":15.3019181,"ECCENTRICITY":0.00010293,"INCLINATION":53.1604,"RA_OF_ASC_NODE":308.6154,"ARG_OF_PERICENTER":70.9667,"MEAN_ANOMALY":289.1445,"EPHEMERIS_TYPE":0,"CLASSIFICATION_TYPE":"U","NORAD_CAT_ID":60366,"ELEMENT_SET_NO":999,"REV_AT_EPOCH":9066,"BSTAR":3.5197328e-5,"MEAN_MOTION_DOT":6.83e-6,"MEAN_MOTION_DDOT":0}]
